start=new Date('2021-09-21T00:00:00.000Z').valueOf();
sats=[{"MEAN_MOTION":"15.06385200","CENTER_NAME":"EARTH","NORAD_CAT_ID":"44716","OBJECT_TYPE":"PAYLOAD","MEAN_ANOMALY":"270.9471","PERIOD":"95.593","ARG_OF_PERICENTER":"89.1610","APOAPSIS":"547.810","MEAN_ELEMENT_THEORY":"SGP4","TLE_LINE1":"1 44716U 19074D   21263.83900249 -.00000520  00000-0 -16022-4 0  9996","ELEMENT_SET_NO":"999","SITE":"AFETR","TLE_LINE2":"2 44716  53.0562 307.7819 0000796  89.1610 270.9471 15.06385200102921","RCS_SIZE":"LARGE","REV_AT_EPOCH":"10292","COUNTRY_CODE":"US","SEMIMAJOR_AXIS":"6925.394","PERIAPSIS":"546.708","FILE":"3121356","INCLINATION":"53.0562","OBJECT_ID":"2019-074D","BSTAR":"-0.00001602200000","ECCENTRICITY":"0.00007960","EPHEMERIS_TYPE":"0","EPOCH":"2021-09-20T20:08:09.815136","LAUNCH_DATE":"2019-11-11","MEAN_MOTION_DDOT":"0.0000000000000","MEAN_MOTION_DOT":"-0.00000520","REF_FRAME":"TEME","TIME_SYSTEM":"UTC","CLASSIFICATION_TYPE":"U","DECAY_DATE":null,"RA_OF_ASC_NODE":"307.7819","OBJECT_NAME":"STARLINK-1010","GP_ID":"185121760"},{"MEAN_MOTION_DDOT":"0.0000000000000","MEAN_MOTION_DOT":"0.00001175","LAUNCH_DATE":"2019-11-11","EPHEMERIS_TYPE":"0","EPOCH":"2021-09-20T13:43:20.837280","ECCENTRICITY":"0.00009800","BSTAR":"0.00009774700000","FILE":"3121356","INCLINATION":"53.0548","OBJECT_ID":"2019-074E","GP_ID":"185122511","OBJECT_NAME":"STARLINK-1011","DECAY_DATE":null,"RA_OF_ASC_NODE":"328.9925","TIME_SYSTEM":"UTC","CLASSIFICATION_TYPE":"U","REF_FRAME":"TEME","ELEMENT_SET_NO":"999","SITE":"AFETR","APOAPSIS":"547.912","MEAN_ELEMENT_THEORY":"SGP4","TLE_LINE1":"1 44717U 19074E   21263.57176895  .00001175  00000-0  97747-4 0  9998","PERIOD":"95.593","ARG_OF_PERICENTER":"97.2809","OBJECT_TYPE":"PAYLOAD","MEAN_ANOMALY":"262.8291","NORAD_CAT_ID":"44717","CENTER_NAME":"EARTH","MEAN_MOTION":"15.06393546","PERIAPSIS":"546.555","SEMIMAJOR_AXIS":"6925.368","COUNTRY_CODE":"US","REV_AT_EPOCH":"10262","RCS_SIZE":"LARGE","TLE_LINE2":"2 44717  53.0548 328.9925 0000980  97.2809 262.8291 15.06393546102623"},{"SEMIMAJOR_AXIS":"6925.355","COUNTRY_CODE":"US","PERIAPSIS":"546.486","RCS_SIZE":"LARGE","TLE_LINE2":"2 44718  53.0546 309.4173 0001060  79.1684 280.9424 15.06397815102881","REV_AT_EPOCH":"10288","ARG_OF_PERICENTER":"79.1684","PERIOD":"95.592","MEAN_ELEMENT_THEORY":"SGP4","APOAPSIS":"547.954","TLE_LINE1":"1 44718U 19074F   21263.47776625  .00000718  00000-0  67105-4 0  9992","ELEMENT_SET_NO":"999","SITE":"AFETR","MEAN_MOTION":"15.06397815","CENTER_NAME":"EARTH","NORAD_CAT_ID":"44718","OBJECT_TYPE":"PAYLOAD","MEAN_ANOMALY":"280.9424","OBJECT_NAME":"STARLINK-1012","GP_ID":"185095075","REF_FRAME":"TEME","TIME_SYSTEM":"UTC","CLASSIFICATION_TYPE":"U","DECAY_DATE":null,"RA_OF_ASC_NODE":"309.4173","EPHEMERIS_TYPE":"0","EPOCH":"2021-09-20T11:27:59.004000","LAUNCH_DATE":"2019-11-11","MEAN_MOTION_DDOT":"0.0000000000000","MEAN_MOTION_DOT":"0.00000718","FILE":"3121163","INCLINATION":"53.0546","OBJECT_ID":"2019-074F","BSTAR":"0.00006710500000","ECCENTRICITY":"0.00010600"},{"BSTAR":"-0.00002826300000","ECCENTRICITY":"0.00006850","FILE":"3121356","INCLINATION":"53.0535","OBJECT_ID":"2019-074G","MEAN_MOTION_DDOT":"0.0000000000000","MEAN_MOTION_DOT":"-0.00000702","EPHEMERIS_TYPE":"0","EPOCH":"2021-09-20T19:36:18.557280","LAUNCH_DATE":"2019-11-11","TIME_SYSTEM":"UTC","CLASSIFICATION_TYPE":"U","DECAY_DATE":null,"RA_OF_ASC_NODE":"307.8866","REF_FRAME":"TEME","GP_ID":"185121009","OBJECT_NAME":"STARLINK-1013","NORAD_CAT_ID":"44719","OBJECT_TYPE":"PAYLOAD","MEAN_ANOMALY":"255.6526","MEAN_MOTION":"15.06394214","CENTER_NAME":"EARTH","ELEMENT_SET_NO":"999","SITE":"AFETR","PERIOD":"95.593","ARG_OF_PERICENTER":"104.4539","APOAPSIS":"547.706","MEAN_ELEMENT_THEORY":"SGP4","TLE_LINE1":"1 44719U 19074G   21263.81688145 -.00000702  00000-0 -28263-4 0  9997","REV_AT_EPOCH":"10406","TLE_LINE2":"2 44719  53.0535 307.8866 0000685 104.4539 255.6526 15.06394214104068","RCS_SIZE":"LARGE","PERIAPSIS":"546.757","SEMIMAJOR_AXIS":"6925.366","COUNTRY_CODE":"US"},{"REV_AT_EPOCH":"10294","RCS_SIZE":"LARGE","TLE_LINE2":"2 44720  53.0538 307.8190 0000552  83.5148 276.5903 15.06395073102949","PERIAPSIS":"546.846","COUNTRY_CODE":"US","SEMIMAJOR_AXIS":"6925.364","MEAN_ANOMALY":"276.5903","OBJECT_TYPE":"PAYLOAD","NORAD_CAT_ID":"44720","MEAN_MOTION":"15.06395073","CENTER_NAME":"EARTH","SITE":"AFETR","ELEMENT_SET_NO":"999","TLE_LINE1":"1 44720U 19074H   21263.83530808  .00000656  00000-0  62924-4 0  9991","APOAPSIS":"547.611","MEAN_ELEMENT_THEORY":"SGP4","PERIOD":"95.592","ARG_OF_PERICENTER":"83.5148","RA_OF_ASC_NODE":"307.8190","DECAY_DATE":null,"CLASSIFICATION_TYPE":"U","TIME_SYSTEM":"UTC","REF_FRAME":"TEME","GP_ID":"185122261","OBJECT_NAME":"STARLINK-1014","ECCENTRICITY":"0.00005520","BSTAR":"0.00006292400000","INCLINATION":"53.0538","OBJECT_ID":"2019-074H","FILE":"3121356","MEAN_MOTION_DOT":"0.00000656","MEAN_MOTION_DDOT":"0.0000000000000","LAUNCH_DATE":"2019-11-11","EPOCH":"2021-09-20T20:02:50.618112","EPHEMERIS_TYPE":"0"},{"TIME_SYSTEM":"UTC","CLASSIFICATION_TYPE":"U","DECAY_DATE":null,"RA_OF_ASC_NODE":"307.8558","REF_FRAME":"TEME","GP_ID":"185122011","OBJECT_NAME":"STARLINK-1015","BSTAR":"0.00010467000000","ECCENTRICITY":"0.00006700","FILE":"3121356","INCLINATION":"53.0536","OBJECT_ID":"2019-074J","MEAN_MOTION_DDOT":"0.0000000000000","MEAN_MOTION_DOT":"0.00001278","EPHEMERIS_TYPE":"0","EPOCH":"2021-09-20T19:46:55.194816","LAUNCH_DATE":"2019-11-11","REV_AT_EPOCH":"10293","RCS_SIZE":"LARGE","TLE_LINE2":"2 44721  53.0536 307.8558 0000670  75.2828 284.8235 15.06404936102938","PERIAPSIS":"546.734","COUNTRY_CODE":"US","SEMIMAJOR_AXIS":"6925.333","NORAD_CAT_ID":"44721","OBJECT_TYPE":"PAYLOAD","MEAN_ANOMALY":"284.8235","CENTER_NAME":"EARTH","MEAN_MOTION":"15.06404936","SITE":"AFETR","ELEMENT_SET_NO":"999","PERIOD":"95.592","ARG_OF_PERICENTER":"75.2828","MEAN_ELEMENT_THEORY":"SGP4","APOAPSIS":"547.662","TLE_LINE1":"1 44721U 19074J   21263.82424994  .00001278  00000-0  10467-3 0  9994"},{"PERIOD":"95.592","ARG_OF_PERICENTER":"97.9198","TLE_LINE1":"1 44722U 19074K   21263.82793643  .00000916  00000-0  80361-4 0  9994","MEAN_ELEMENT_THEORY":"SGP4","APOAPSIS":"547.711","ELEMENT_SET_NO":"999","SITE":"AFETR","MEAN_MOTION":"15.06398376","CENTER_NAME":"EARTH","NORAD_CAT_ID":"44722","MEAN_ANOMALY":"262.1871","OBJECT_TYPE":"PAYLOAD","SEMIMAJOR_AXIS":"6925.354","COUNTRY_CODE":"US","PERIAPSIS":"546.726","TLE_LINE2":"2 44722  53.0547 307.8436 0000711  97.9198 262.1871 15.06398376102949","RCS_SIZE":"LARGE","REV_AT_EPOCH":"10294","EPOCH":"2021-09-20T19:52:13.707552","EPHEMERIS_TYPE":"0","LAUNCH_DATE":"2019-11-11","MEAN_MOTION_DOT":"0.00000916","MEAN_MOTION_DDOT":"0.0000000000000","INCLINATION":"53.0547","OBJECT_ID":"2019-074K","FILE":"3121356","BSTAR":"0.00008036100000","ECCENTRICITY":"0.00007110","OBJECT_NAME":"STARLINK-1016","GP_ID":"185120759","REF_FRAME":"TEME","CLASSIFICATION_TYPE":"U","TIME_SYSTEM":"UTC","RA_OF_ASC_NODE":"307.8436","DECAY_DATE":null},{"COUNTRY_CODE":"US","SEMIMAJOR_AXIS":"6925.377","PERIAPSIS":"546.676","TLE_LINE2":"2 44723  53.0559 307.7751 0000817  90.7641 269.3442 15.06390626102946","RCS_SIZE":"LARGE","REV_AT_EPOCH":"10294","PERIOD":"95.593","ARG_OF_PERICENTER":"90.7641","MEAN_ELEMENT_THEORY":"SGP4","APOAPSIS":"547.808","TLE_LINE1":"1 44723U 19074L   21263.84268605  .00000828  00000-0  74480-4 0  9999","ELEMENT_SET_NO":"999","SITE":"AFETR","MEAN_MOTION":"15.06390626","CENTER_NAME":"EARTH","NORAD_CAT_ID":"44723","OBJECT_TYPE":"PAYLOAD","MEAN_ANOMALY":"269.3442","OBJECT_NAME":"STARLINK-1017","GP_ID":"185121510","REF_FRAME":"TEME","TIME_SYSTEM":"UTC","CLASSIFICATION_TYPE":"U","DECAY_DATE":null,"RA_OF_ASC_NODE":"307.7751","EPHEMERIS_TYPE":"0","EPOCH":"2021-09-20T20:13:28.074720","LAUNCH_DATE":"2019-11-11","MEAN_MOTION_DDOT":"0.0000000000000","MEAN_MOTION_DOT":"0.00000828","FILE":"3121356","INCLINATION":"53.0559","OBJECT_ID":"2019-074L","BSTAR":"0.00007448000000","ECCENTRICITY":"0.00008170"},{"MEAN_MOTION_DOT":"0.00000891","MEAN_MOTION_DDOT":"0.0000000000000","LAUNCH_DATE":"2019-11-11","EPOCH":"2021-09-20T12:58:13.998720","EPHEMERIS_TYPE":"0","ECCENTRICITY":"0.00011390","BSTAR":"0.00007871800000","INCLINATION":"53.0548","OBJECT_ID":"2019-074M","FILE":"3121163","GP_ID":"185094574","OBJECT_NAME":"STARLINK-1019","RA_OF_ASC_NODE":"309.1367","DECAY_DATE":null,"CLASSIFICATION_TYPE":"U","TIME_SYSTEM":"UTC","REF_FRAME":"TEME","SITE":"AFETR","ELEMENT_SET_NO":"999","TLE_LINE1":"1 44724U 19074M   21263.54043980  .00000891  00000-0  78718-4 0  9992","APOAPSIS":"547.999","MEAN_ELEMENT_THEORY":"SGP4","PERIOD":"95.592","ARG_OF_PERICENTER":"89.7825","MEAN_ANOMALY":"270.3294","OBJECT_TYPE":"PAYLOAD","NORAD_CAT_ID":"44724","MEAN_MOTION":"15.06401188","CENTER_NAME":"EARTH","PERIAPSIS":"546.421","SEMIMAJOR_AXIS":"6925.345","COUNTRY_CODE":"US","REV_AT_EPOCH":"10289","TLE_LINE2":"2 44724  53.0548 309.1367 0001139  89.7825 270.3294 15.06401188102891","RCS_SIZE":"LARGE"},{"MEAN_MOTION":"15.06399605","CENTER_NAME":"EARTH","NORAD_CAT_ID":"44725","MEAN_ANOMALY":"253.6138","OBJECT_TYPE":"PAYLOAD","ARG_OF_PERICENTER":"106.4968","PERIOD":"95.592","TLE_LINE1":"1 44725U 19074N   21263.87769011 -.00000590  00000-0 -20732-4 0  9990","MEAN_ELEMENT_THEORY":"SGP4","APOAPSIS":"547.956","ELEMENT_SET_NO":"999","SITE":"AFETR","RCS_SIZE":"LARGE","TLE_LINE2":"2 44725  53.0547 327.6189 0001071 106.4968 253.6138 15.06399605102664","REV_AT_EPOCH":"10266","SEMIMAJOR_AXIS":"6925.350","COUNTRY_CODE":"US","PERIAPSIS":"546.473","OBJECT_ID":"2019-074N","INCLINATION":"53.0547","FILE":"3121356","BSTAR":"-0.00002073200000","ECCENTRICITY":"0.00010710","EPOCH":"2021-09-20T21:03:52.425504","EPHEMERIS_TYPE":"0","LAUNCH_DATE":"2019-11-11","MEAN_MOTION_DOT":"-0.00000590","MEAN_MOTION_DDOT":"0.0000000000000","REF_FRAME":"TEME","CLASSIFICATION_TYPE":"U","TIME_SYSTEM":"UTC","RA_OF_ASC_NODE":"327.6189","DECAY_DATE":null,"OBJECT_NAME":"STARLINK-1020","GP_ID":"185122512"}];
